STARLINK-2497           
1 48455U 21040AD  25247.46409847 -.00003879  00000+0 -24148-3 0  9995
2 48455  53.0549 297.6208 0001149  90.5646 269.5475 15.06422403238551
STARLINK-2698           
1 48458U 21040AG  25247.47288501 -.00000325  00000+0 -29152-5 0  9996
2 48458  53.0556 302.6682 0001358  88.6396 271.4748 15.06395822239209
STARLINK-2579           
1 48459U 21040AH  25247.46554678  .00004628  00000+0  32929-3 0  9999
2 48459  53.0555 302.9724 0001567  74.5739 285.5423 15.06409765238494
STARLINK-2582           
1 48460U 21040AJ  25247.39082342  .00039100  00000+0  16109-2 0  9991
2 48460  53.0695 287.3450 0003570  44.7883 315.3402 15.23741390239210
STARLINK-2683           
1 48462U 21040AL  25247.48165582  .00011106  00000+0  76317-3 0  9995
2 48462  53.0549 307.8220 0001072  86.6616 273.4496 15.06407613238424
STARLINK-2686           
1 48464U 21040AN  25247.46687344  .00001704  00000+0  13329-3 0  9997
2 48464  53.0559 307.6084 0001645  82.9743 277.1433 15.06390502238429
STARLINK-2681           
1 48465U 21040AP  25247.47793648  .00010344  00000+0  71218-3 0  9995
2 48465  53.0553 307.5566 0000905  70.4326 289.6761 15.06406907238435
STARLINK-2687           
1 48466U 21040AQ  25247.39684472  .00005335  00000+0  37674-3 0  9993
2 48466  53.0556 307.9236 0001555 105.4856 254.6304 15.06404937238421
STARLINK-2659           
1 48467U 21040AR  25247.48899408  .00013112  00000+0  89798-3 0  9997
2 48467  53.0548 307.5077 0001375  87.9015 272.2131 15.06380534238434
STARLINK-2685           
1 48468U 21040AS  25247.47055620  .00007458  00000+0  51887-3 0  9991
2 48468  53.0549 307.5911 0001262  99.9781 260.1351 15.06414029238438
STARLINK-2661           
1 48469U 21040AT  25247.48530803  .00004626  00000+0  32921-3 0  9996
2 48469  53.0552 307.5258 0001321  79.5752 280.5386 15.06404011238439
STARLINK-2675           
1 48470U 21040AU  25247.44848837  .00010908  00000+0  74979-3 0  9992
2 48470  53.0550 308.0353 0001270  92.7728 267.3407 15.06412070238413
STARLINK-2684           
1 48471U 21040AV  25247.47424838  .00002781  00000+0  20550-3 0  9993
2 48471  53.0540 307.5740 0001024  74.5536 285.5566 15.06404548238429
STARLINK-2722           
1 48472U 21040AW  25247.45581493  .00038670  00000+0  25979-2 0  9998
2 48472  53.0557 307.6586 0001413  73.6637 286.4507 15.06441151238416
STARLINK-2658           
1 48473U 21040AX  25247.49268169  .00010678  00000+0  73461-3 0  9993
2 48473  53.0539 307.4947 0001233  82.5786 277.5343 15.06400921238420
STARLINK-2697           
1 48474U 21040AY  25247.45950549  .00010544  00000+0  72537-3 0  9995
2 48474  53.0554 307.6431 0001310  81.2113 278.9025 15.06417455238415
