[{"OBJECT_NAME":"STARLINK-2497","OBJECT_ID":"2021-040AD","EPOCH":"2025-09-04T11:08:18.107808","MEAN_MOTION":15.06422403,"ECCENTRICITY":0.00011494,"INCLINATION":53.0549,"RA_OF_ASC_NODE":297.6208,"ARG_OF_PERICENTER":90.5646,"MEAN_ANOMALY":269.5475,"EPHEMERIS_TYPE":0,"CLASSIFICATION_TYPE":"U","NORAD_CAT_ID":48455,"ELEMENT_SET_NO":999,"REV_AT_EPOCH":23855,"BSTAR":-0.00024148039,"MEAN_MOTION_DOT":-3.879e-5,"MEAN_MOTION_DDOT":0},{"OBJECT_NAME":"STARLINK-2698","OBJECT_ID":"2021-040AG","EPOCH":"2025-09-04T11:20:57.264864","MEAN_MOTION":15.06395822,"ECCENTRICITY":0.00013586,"INCLINATION":53.0556,"RA_OF_ASC_NODE":302.6682,"ARG_OF_PERICENTER":88.6396,"MEAN_ANOMALY":271.4748,"EPHEMERIS_TYPE":0,"CLASSIFICATION_TYPE":"U","NORAD_CAT_ID":48458,"ELEMENT_SET_NO":999,"REV_AT_EPOCH":23920,"BSTAR":-2.915224e-6,"MEAN_MOTION_DOT":-3.25e-6,"MEAN_MOTION_DDOT":0},{"OBJECT_NAME":"STARLINK-2579","OBJECT_ID":"2021-040AH","EPOCH":"2025-09-04T11:10:23.241792","MEAN_MOTION":15.06409765,"ECCENTRICITY":0.00015677,"INCLINATION":53.0555,"RA_OF_ASC_NODE":302.9724,"ARG_OF_PERICENTER":74.5739,"MEAN_ANOMALY":285.5423,"EPHEMERIS_TYPE":0,"CLASSIFICATION_TYPE":"U","NORAD_CAT_ID":48459,"ELEMENT_SET_NO":999,"REV_AT_EPOCH":23849,"BSTAR":0.00032928786,"MEAN_MOTION_DOT":4.628e-5,"MEAN_MOTION_DDOT":0},{"OBJECT_NAME":"STARLINK-2582","OBJECT_ID":"2021-040AJ","EPOCH":"2025-09-04T09:22:47.143488","MEAN_MOTION":15.2374139,"ECCENTRICITY":0.00035708,"INCLINATION":53.0695,"RA_OF_ASC_NODE":287.345,"ARG_OF_PERICENTER":44.7883,"MEAN_ANOMALY":315.3402,"EPHEMERIS_TYPE":0,"CLASSIFICATION_TYPE":"U","NORAD_CAT_ID":48460,"ELEMENT_SET_NO":999,"REV_AT_EPOCH":23921,"BSTAR":0.0016108935,"MEAN_MOTION_DOT":0.000391,"MEAN_MOTION_DDOT":0},{"OBJECT_NAME":"STARLINK-2683","OBJECT_ID":"2021-040AL","EPOCH":"2025-09-04T11:33:35.062848","MEAN_MOTION":15.06407613,"ECCENTRICITY":0.00010722,"INCLINATION":53.0549,"RA_OF_ASC_NODE":307.822,"ARG_OF_PERICENTER":86.6616,"MEAN_ANOMALY":273.4496,"EPHEMERIS_TYPE":0,"CLASSIFICATION_TYPE":"U","NORAD_CAT_ID":48462,"ELEMENT_SET_NO":999,"REV_AT_EPOCH":23842,"BSTAR":0.00076317304,"MEAN_MOTION_DOT":0.00011106,"MEAN_MOTION_DDOT":0},{"OBJECT_NAME":"STARLINK-2686","OBJECT_ID":"2021-040AN","EPOCH":"2025-09-04T11:12:17.865216","MEAN_MOTION":15.06390502,"ECCENTRICITY":0.00016454,"INCLINATION":53.0559,"RA_OF_ASC_NODE":307.6084,"ARG_OF_PERICENTER":82.9743,"MEAN_ANOMALY":277.1433,"EPHEMERIS_TYPE":0,"CLASSIFICATION_TYPE":"U","NORAD_CAT_ID":48464,"ELEMENT_SET_NO":999,"REV_AT_EPOCH":23842,"BSTAR":0.00013328571,"MEAN_MOTION_DOT":1.704e-5,"MEAN_MOTION_DDOT":0},{"OBJECT_NAME":"STARLINK-2681","OBJECT_ID":"2021-040AP","EPOCH":"2025-09-04T11:28:13.711872","MEAN_MOTION":15.06406907,"ECCENTRICITY":9.051e-5,"INCLINATION":53.0553,"RA_OF_ASC_NODE":307.5566,"ARG_OF_PERICENTER":70.4326,"MEAN_ANOMALY":289.6761,"EPHEMERIS_TYPE":0,"CLASSIFICATION_TYPE":"U","NORAD_CAT_ID":48465,"ELEMENT_SET_NO":999,"REV_AT_EPOCH":23843,"BSTAR":0.00071218335,"MEAN_MOTION_DOT":0.00010344,"MEAN_MOTION_DDOT":0},{"OBJECT_NAME":"STARLINK-2687","OBJECT_ID":"2021-040AQ","EPOCH":"2025-09-04T09:31:27.383808","MEAN_MOTION":15.06404937,"ECCENTRICITY":0.00015553,"INCLINATION":53.0556,"RA_OF_ASC_NODE":307.9236,"ARG_OF_PERICENTER":105.4856,"MEAN_ANOMALY":254.6304,"EPHEMERIS_TYPE":0,"CLASSIFICATION_TYPE":"U","NORAD_CAT_ID":48466,"ELEMENT_SET_NO":999,"REV_AT_EPOCH":23842,"BSTAR":0.00037673726,"MEAN_MOTION_DOT":5.335e-5,"MEAN_MOTION_DDOT":0},{"OBJECT_NAME":"STARLINK-2659","OBJECT_ID":"2021-040AR","EPOCH":"2025-09-04T11:44:09.088512","MEAN_MOTION":15.06380534,"ECCENTRICITY":0.00013751,"INCLINATION":53.0548,"RA_OF_ASC_NODE":307.5077,"ARG_OF_PERICENTER":87.9015,"MEAN_ANOMALY":272.2131,"EPHEMERIS_TYPE":0,"CLASSIFICATION_TYPE":"U","NORAD_CAT_ID":48467,"ELEMENT_SET_NO":999,"REV_AT_EPOCH":23843,"BSTAR":0.00089798127,"MEAN_MOTION_DOT":0.00013112,"MEAN_MOTION_DDOT":0},{"OBJECT_NAME":"STARLINK-2685","OBJECT_ID":"2021-040AS","EPOCH":"2025-09-04T11:17:36.055680","MEAN_MOTION":15.06414029,"ECCENTRICITY":0.0001262,"INCLINATION":53.0549,"RA_OF_ASC_NODE":307.5911,"ARG_OF_PERICENTER":99.9781,"MEAN_ANOMALY":260.1351,"EPHEMERIS_TYPE":0,"CLASSIFICATION_TYPE":"U","NORAD_CAT_ID":48468,"ELEMENT_SET_NO":999,"REV_AT_EPOCH":23843,"BSTAR":0.00051887451,"MEAN_MOTION_DOT":7.458e-5,"MEAN_MOTION_DDOT":0},{"OBJECT_NAME":"STARLINK-2661","OBJECT_ID":"2021-040AT","EPOCH":"2025-09-04T11:38:50.613792","MEAN_MOTION":15.06404011,"ECCENTRICITY":0.00013215,"INCLINATION":53.0552,"RA_OF_ASC_NODE":307.5258,"ARG_OF_PERICENTER":79.5752,"MEAN_ANOMALY":280.5386,"EPHEMERIS_TYPE":0,"CLASSIFICATION_TYPE":"U","NORAD_CAT_ID":48469,"ELEMENT_SET_NO":999,"REV_AT_EPOCH":23843,"BSTAR":0.00032921359,"MEAN_MOTION_DOT":4.626e-5,"MEAN_MOTION_DDOT":0},{"OBJECT_NAME":"STARLINK-2675","OBJECT_ID":"2021-040AU","EPOCH":"2025-09-04T10:45:49.395168","MEAN_MOTION":15.0641207,"ECCENTRICITY":0.00012705,"INCLINATION":53.055,"RA_OF_ASC_NODE":308.0353,"ARG_OF_PERICENTER":92.7728,"MEAN_ANOMALY":267.3407,"EPHEMERIS_TYPE":0,"CLASSIFICATION_TYPE":"U","NORAD_CAT_ID":48470,"ELEMENT_SET_NO":999,"REV_AT_EPOCH":23841,"BSTAR":0.00074978548,"MEAN_MOTION_DOT":0.00010908,"MEAN_MOTION_DDOT":0},{"OBJECT_NAME":"STARLINK-2684","OBJECT_ID":"2021-040AV","EPOCH":"2025-09-04T11:22:55.060032","MEAN_MOTION":15.06404548,"ECCENTRICITY":0.00010245,"INCLINATION":53.054,"RA_OF_ASC_NODE":307.574,"ARG_OF_PERICENTER":74.5536,"MEAN_ANOMALY":285.5566,"EPHEMERIS_TYPE":0,"CLASSIFICATION_TYPE":"U","NORAD_CAT_ID":48471,"ELEMENT_SET_NO":999,"REV_AT_EPOCH":23842,"BSTAR":0.00020550036,"MEAN_MOTION_DOT":2.781e-5,"MEAN_MOTION_DDOT":0},{"OBJECT_NAME":"STARLINK-2722","OBJECT_ID":"2021-040AW","EPOCH":"2025-09-04T10:56:22.409952","MEAN_MOTION":15.06441151,"ECCENTRICITY":0.00014133,"INCLINATION":53.0557,"RA_OF_ASC_NODE":307.6586,"ARG_OF_PERICENTER":73.6637,"MEAN_ANOMALY":286.4507,"EPHEMERIS_TYPE":0,"CLASSIFICATION_TYPE":"U","NORAD_CAT_ID":48472,"ELEMENT_SET_NO":999,"REV_AT_EPOCH":23841,"BSTAR":0.0025978659,"MEAN_MOTION_DOT":0.0003867,"MEAN_MOTION_DDOT":0},{"OBJECT_NAME":"STARLINK-2658","OBJECT_ID":"2021-040AX","EPOCH":"2025-09-04T11:49:27.698016","MEAN_MOTION":15.06400921,"ECCENTRICITY":0.00012338,"INCLINATION":53.0539,"RA_OF_ASC_NODE":307.4947,"ARG_OF_PERICENTER":82.5786,"MEAN_ANOMALY":277.5343,"EPHEMERIS_TYPE":0,"CLASSIFICATION_TYPE":"U","NORAD_CAT_ID":48473,"ELEMENT_SET_NO":999,"REV_AT_EPOCH":23842,"BSTAR":0.00073461379,"MEAN_MOTION_DOT":0.00010678,"MEAN_MOTION_DDOT":0},{"OBJECT_NAME":"STARLINK-2697","OBJECT_ID":"2021-040AY","EPOCH":"2025-09-04T11:01:41.274336","MEAN_MOTION":15.06417455,"ECCENTRICITY":0.00013104,"INCLINATION":53.0554,"RA_OF_ASC_NODE":307.6431,"ARG_OF_PERICENTER":81.2113,"MEAN_ANOMALY":278.9025,"EPHEMERIS_TYPE":0,"CLASSIFICATION_TYPE":"U","NORAD_CAT_ID":48474,"ELEMENT_SET_NO":999,"REV_AT_EPOCH":23841,"BSTAR":0.00072536528,"MEAN_MOTION_DOT":0.00010544,"MEAN_MOTION_DDOT":0}]
